{"spkid": "50633071", "covariance": {"epoch": "2457958.5", "data": [["2.396166592904244E-15", "-2.865708339498372E-15", "6.531764436222225E-13", "2.016435023988061E-13", "2.466229043038752E-13", "7.998437669618513E-14"], ["-2.865708339498372E-15", "3.436689746581969E-15", "-7.502892816652682E-13", "-2.628215172749919E-13", "-2.658133606572191E-13", "-9.791639668860111E-14"], ["6.531764436222225E-13", "-7.502892816652682E-13", "3.198380915654547E-10", "1.75717563654734E-11", "1.644128779925521E-10", "3.020875858304104E-11"], ["2.016435023988061E-13", "-2.628215172749919E-13", "1.75717563654734E-11", "6.630887843557523E-9", "-6.605789810670018E-9", "-6.93341746764667E-10"], ["2.466229043038752E-13", "-2.658133606572191E-13", "1.644128779925521E-10", "-6.605789810670018E-9", "6.709392689792247E-9", "7.055802448522E-10"], ["7.998437669618513E-14", "-9.791639668860111E-14", "3.020875858304104E-11", "-6.93341746764667E-10", "7.055802448522E-10", "1.523998972331775E-10"]], "elements": [{"label": "e", "sigma": 4.89506546728871e-08, "name": "e", "value": ".3097416680146981", "title": "eccentricity", "units": null}, {"name": "q", "sigma": 5.86232867261975e-08, "units": "au", "title": "perihelion distance", "value": ".8735185218741245", "label": "q"}, {"label": "tp", "name": "tp", "sigma": 1.78840177690992e-05, "value": "2457981.255313634461", "title": "time of perihelion passage", "units": "TDB"}, {"units": "deg", "value": "211.5730108342947", "title": "longitude of the ascending node", "sigma": 8.14302636834581e-05, "name": "om", "label": "node"}, {"label": "peri", "name": "w", "sigma": 8.19108826090419e-05, "value": "28.80690836520677", "title": "argument of perihelion", "units": "deg"}, {"name": "i", "sigma": 1.23450353273361e-05, "units": "deg", "title": "inclination", "value": "5.218956913251755", "label": "i"}], "labels": ["e", "q", "tp", "node", "peri", "i"]}, "elements": [{"title": "eccentricity", "value": ".3097480621803111", "units": null, "name": "e", "sigma": "4.865E-8", "label": "e"}, {"label": "a", "title": "semi-major axis", "value": "1.265535862198488", "units": "au", "name": "a", "sigma": "5.3671E-9"}, {"label": "q", "name": "q", "sigma": "5.8822E-8", "title": "perihelion distance", "value": ".8735385812628174", "units": "au"}, {"units": "deg", "value": "5.219601145523264", "title": "inclination; angle with respect to x-y ecliptic plane", "sigma": "1.2343E-5", "name": "i", "label": "i"}, {"label": "node", "value": "211.516104921743", "title": "longitude of the ascending node", "units": "deg", "sigma": "8.1416E-5", "name": "om"}, {"label": "peri", "sigma": "8.1894E-5", "name": "w", "units": "deg", "title": "argument of perihelion", "value": "28.93844028841409"}, {"sigma": "2.8075E-5", "name": "ma", "title": "mean anomaly", "value": "68.47774745245044", "units": "deg", "label": "M"}, {"sigma": "3.9933E-5", "name": "tp", "units": "TDB", "value": "2461101.586156671367", "title": "time of perihelion passage", "label": "tp"}, {"label": "period", "units": "d", "value": "520.0081036987095", "title": "sidereal orbital period", "name": "per", "sigma": "3.308E-6"}, {"sigma": "4.404E-9", "name": "n", "value": ".692296903527839", "title": "mean motion", "units": "deg/d", "label": "n"}, {"name": "ad", "sigma": "7.0295E-9", "units": "au", "value": "1.657533143134159", "title": "aphelion distance", "label": "Q"}], "epoch": "2461200.5"}